#aV2020 11 15  0  0  0.00000000     288 DD+AD WGS84 FIT  NGA
## 2132      0.00000000   300.00000000 59168 0.0000000000000
+   31     1  2  3  4  5  6  7  8  9 10 11 12 13 15 16 17 18
+         19 20 21 22 23 24 25 26 27 28 29 30 31 32  0  0  0
+          0  0  0  0  0  0  0  0  0  0  0  0  0  0  0  0  0
+          0  0  0  0  0  0  0  0  0  0  0  0  0  0  0  0  0
+          0  0  0  0  0  0  0  0  0  0  0  0  0  0  0  0  0
++         2  2  2  2  2  2  2  2  2  2  2  2  2  2  2  2  2
++         2  2  2  2  2  2  2  2  2  2  2  2  2  2  0  0  0
++         0  0  0  0  0  0  0  0  0  0  0  0  0  0  0  0  0
++         0  0  0  0  0  0  0  0  0  0  0  0  0  0  0  0  0
++         0  0  0  0  0  0  0  0  0  0  0  0  0  0  0  0  0
%c cc cc ccc ccc cccc cccc cccc cccc ccccc ccccc ccccc ccccc
%c cc cc ccc ccc cccc cccc cccc cccc ccccc ccccc ccccc ccccc
%f  0.0000000  0.000000000  0.00000000000  0.000000000000000
%f  0.0000000  0.000000000  0.00000000000  0.000000000000000
%i    0    0    0    0      0      0      0      0         0
%i    0    0    0    0      0      0      0      0         0
/*      NGA, ST. LOUIS,MO.                                  
/*   EPHEMERIS COMPUTED FROM 2 DAYS OF DATA                 
/*   EPOCHA v5 SMOOTHER                                     
/*   G1762 IERS2010 SATAF SATAPC                            
*  2020 11 15  6 35  0.00000000
P  1  14455.715725  -2336.280496  21927.013475    807.329919                    
V  1   6042.974590  27696.593294   -703.314220     -0.038304                    
P  2 -14180.639884 -18738.228661 -11739.614628   -542.706073                    
V  2  -2159.490187 -15973.504964  26632.022481     -0.047095                    
P  3  21982.210802 -11120.397836   9717.878564     -4.271111                    
V  3  -7528.170422  10250.991848  28611.798882     -0.100682                    
P  4  23505.672051   -957.129221 -12367.710331   -155.458710                    
V  4  14052.525521   7366.319678  26087.625071     -0.035902                    
P  5 -14468.869749  -6979.385395 -21332.154167    -25.923335                    
V  5  18675.192606 -19120.070767  -6276.501594     -0.009431                    
P  6  -5457.431578 -25968.202914    517.042084     -1.065696                    
V  6   2247.590855     96.976412  32237.232386     -0.015379                    
P  7   7839.960480 -18891.079940 -16347.237284   -414.610879                    
V  7   6844.238947  20616.737209 -20621.683248     -0.076677                    
P  8  25972.857252   5256.921487   3369.481328    -55.155926                    
V  8   3398.598956   3412.010411 -31367.689640     -0.013378                    
P  9  14475.165271 -10384.438806 -19767.876185   -289.725184                    
V  9  23611.815858   8265.780877  12971.018495     -0.047694                    
P 10  -7090.021350  20668.514013  15004.717097   -504.987610                    
V 10 -15327.557145  11387.464247 -23325.031147     -0.091337                    
P 11  20191.561223   5108.527801  15820.353188   -108.268329                    
V 11  11232.040994  18284.445622 -20034.132522      0.105400                    
P 12 -22346.845744   7652.388287  11754.247087     40.149361                    
V 12  10640.471047 -11235.944119  27151.796193     -0.051541                    
P 13 -22546.640435 -13571.482066  -4165.325986     65.050646                    
V 13   5655.177928    -78.952675 -31251.772720      0.038505                    
P 15 -26357.728252  -2416.294588   3586.074968   -189.910001                    
V 15  -4185.121432  -4394.765811 -30339.950440      0.025994                    
P 16  14192.147896   7426.388033 -21484.896195   -236.676421                    
V 16 -20924.982697  16480.072826  -7765.029841     -0.053026                    
P 17  -4330.353288 -16473.258541  20818.691031    354.099927                    
V 17  23981.122447   8374.072798  11835.062363      0.051189                    
P 18  -6856.775456  20410.600669 -15523.727017    321.508893                    
V 18  -5722.368179 -18952.343452 -22455.752025      0.048081                    
P 19 -11317.516113 -17044.873773  16692.819472    -78.118976                    
V 19  20462.539037   7269.400153  20866.601358      0.050318                    
P 20 -14698.186565  21696.706226   3265.715550    526.013704                    
V 20  -5656.399135    894.799089 -30987.132691     -0.001583                    
P 21  16932.632889   7247.751767  20018.412571     68.368138                    
V 21   5895.335154  22984.253888 -13485.799229      0.038170                    
P 22  20480.554504  -4524.677907  16400.511910   -729.738843                    
V 22 -12008.822729  16927.768218  20058.522441      0.053607                    
P 23 -15482.459267  20728.253653   5909.561852    100.415923                    
V 23  -7309.929182   3302.770281 -30603.633618      0.045541                    
P 24 -16319.307975  -1366.862591  20746.620455      6.414439                    
V 24  -6962.703258 -25973.908020  -6726.053574     -0.005168                    
P 25 -19765.731091  17490.731337    759.254442     22.423530                    
V 25  -1090.831705  -3044.383175  31970.622729      0.065697                    
P 26   4138.316249  16597.907801 -20293.442178    311.977668                    
V 26 -19161.640547  17336.998595  10537.270193      0.060666                    
P 27  22133.119510  12684.991873  -8157.250664    -13.929513                    
V 27 -10133.843038  -1243.942984 -29635.135628     -0.083356                    
P 28   7286.056910 -19837.119916  16773.282244    655.330775                    
V 28  16776.900165 -11162.756777 -21064.093255     -0.046142                    
P 29 -16819.266315   7165.982069 -19321.386956   -236.751387                    
V 29 -22332.757935  -9818.448812  15783.184383     -0.076899                    
P 30   1658.777967 -24922.317651  -8664.238443   -335.821158                    
V 30   5469.288636  10316.350356 -28687.592842     -0.065874                    
P 31   6510.775565  25404.406228  -2099.200811    -81.531951                    
V 31  -2749.311101   3220.852515  31833.769065     -0.024041                    
P 32   5104.571570  16515.585670  20291.849922      0.569241                    
V 32 -24719.405415  -6523.732031  11420.362958      0.032874                    
EOF
